[{"OBJECT_NAME":"ALOS (DAICHI)","OBJECT_ID":"2006-002A","EPOCH":"2026-04-10T07:02:58.841376","MEAN_MOTION":14.69912638,"ECCENTRICITY":0.00013762,"INCLINATION":98.1267,"RA_OF_ASC_NODE":56.1037,"ARG_OF_PERICENTER":115.0797,"MEAN_ANOMALY":245.0552,"EPHEMERIS_TYPE":0,"CLASSIFICATION_TYPE":"U","NORAD_CAT_ID":28931,"ELEMENT_SET_NO":999,"REV_AT_EPOCH":7812,"BSTAR":0.00022284035,"MEAN_MOTION_DOT":1.284e-5,"MEAN_MOTION_DDOT":0},{"OBJECT_NAME":"H-2A R/B","OBJECT_ID":"2006-002B","EPOCH":"2026-04-10T03:26:06.604800","MEAN_MOTION":15.17174677,"ECCENTRICITY":0.00525542,"INCLINATION":98.2473,"RA_OF_ASC_NODE":249.9004,"ARG_OF_PERICENTER":134.0311,"MEAN_ANOMALY":226.5268,"EPHEMERIS_TYPE":0,"CLASSIFICATION_TYPE":"U","NORAD_CAT_ID":28932,"ELEMENT_SET_NO":999,"REV_AT_EPOCH":9920,"BSTAR":0.00048409787,"MEAN_MOTION_DOT":9.886e-5,"MEAN_MOTION_DDOT":0},{"OBJECT_NAME":"RESURS-DK 1","OBJECT_ID":"2006-021A","EPOCH":"2026-04-10T04:57:39.349152","MEAN_MOTION":15.12937425,"ECCENTRICITY":0.00022824,"INCLINATION":69.932,"RA_OF_ASC_NODE":155.4899,"ARG_OF_PERICENTER":20.3541,"MEAN_ANOMALY":339.7716,"EPHEMERIS_TYPE":0,"CLASSIFICATION_TYPE":"U","NORAD_CAT_ID":29228,"ELEMENT_SET_NO":999,"REV_AT_EPOCH":9229,"BSTAR":0.00011316683,"MEAN_MOTION_DOT":1.891e-5,"MEAN_MOTION_DDOT":0},{"OBJECT_NAME":"CZ-4B R/B","OBJECT_ID":"2006-046C","EPOCH":"2026-04-10T01:42:59.614848","MEAN_MOTION":15.17243656,"ECCENTRICITY":0.00338026,"INCLINATION":97.5536,"RA_OF_ASC_NODE":144.8922,"ARG_OF_PERICENTER":156.437,"MEAN_ANOMALY":203.8421,"EPHEMERIS_TYPE":0,"CLASSIFICATION_TYPE":"U","NORAD_CAT_ID":29507,"ELEMENT_SET_NO":999,"REV_AT_EPOCH":6480,"BSTAR":0.00024030803,"MEAN_MOTION_DOT":4.781e-5,"MEAN_MOTION_DDOT":0},{"OBJECT_NAME":"CZ-2C R/B","OBJECT_ID":"2007-010B","EPOCH":"2026-04-10T06:54:09.050400","MEAN_MOTION":14.20258747,"ECCENTRICITY":0.00586481,"INCLINATION":98.4014,"RA_OF_ASC_NODE":211.9878,"ARG_OF_PERICENTER":201.2561,"MEAN_ANOMALY":158.618,"EPHEMERIS_TYPE":0,"CLASSIFICATION_TYPE":"U","NORAD_CAT_ID":31114,"ELEMENT_SET_NO":999,"REV_AT_EPOCH":98420,"BSTAR":8.5672649e-5,"MEAN_MOTION_DOT":1.45e-6,"MEAN_MOTION_DDOT":0},{"OBJECT_NAME":"COSMO-SKYMED 1","OBJECT_ID":"2007-023A","EPOCH":"2026-04-10T06:54:26.479008","MEAN_MOTION":14.96785149,"ECCENTRICITY":0.0001737,"INCLINATION":97.889,"RA_OF_ASC_NODE":291.579,"ARG_OF_PERICENTER":90.9477,"MEAN_ANOMALY":269.1943,"EPHEMERIS_TYPE":0,"CLASSIFICATION_TYPE":"U","NORAD_CAT_ID":31598,"ELEMENT_SET_NO":999,"REV_AT_EPOCH":1963,"BSTAR":0.00030298406,"MEAN_MOTION_DOT":3.408e-5,"MEAN_MOTION_DDOT":0},{"OBJECT_NAME":"COSMOS 2428","OBJECT_ID":"2007-029A","EPOCH":"2026-04-10T04:19:17.781888","MEAN_MOTION":14.12948792,"ECCENTRICITY":0.00096462,"INCLINATION":70.9411,"RA_OF_ASC_NODE":137.2501,"ARG_OF_PERICENTER":244.0335,"MEAN_ANOMALY":115.9793,"EPHEMERIS_TYPE":0,"CLASSIFICATION_TYPE":"U","NORAD_CAT_ID":31792,"ELEMENT_SET_NO":999,"REV_AT_EPOCH":96854,"BSTAR":-2.8067278e-5,"MEAN_MOTION_DOT":-1.0e-6,"MEAN_MOTION_DDOT":0},{"OBJECT_NAME":"SL-16 R/B","OBJECT_ID":"2007-029B","EPOCH":"2026-04-10T07:09:43.253856","MEAN_MOTION":14.14842694,"ECCENTRICITY":0.000289,"INCLINATION":70.973,"RA_OF_ASC_NODE":105.9407,"ARG_OF_PERICENTER":274.2455,"MEAN_ANOMALY":97.3327,"EPHEMERIS_TYPE":0,"CLASSIFICATION_TYPE":"U","NORAD_CAT_ID":31793,"ELEMENT_SET_NO":999,"REV_AT_EPOCH":96984,"BSTAR":-8.1272189e-5,"MEAN_MOTION_DOT":-2.05e-6,"MEAN_MOTION_DDOT":0},{"OBJECT_NAME":"KORONAS-FOTON","OBJECT_ID":"2009-003A","EPOCH":"2026-04-10T03:17:03.744960","MEAN_MOTION":15.44245081,"ECCENTRICITY":0.00111222,"INCLINATION":82.4294,"RA_OF_ASC_NODE":243.1589,"ARG_OF_PERICENTER":46.7665,"MEAN_ANOMALY":313.451,"EPHEMERIS_TYPE":0,"CLASSIFICATION_TYPE":"U","NORAD_CAT_ID":33504,"ELEMENT_SET_NO":999,"REV_AT_EPOCH":95059,"BSTAR":0.00028787744,"MEAN_MOTION_DOT":0.00013298,"MEAN_MOTION_DDOT":0},{"OBJECT_NAME":"CZ-2C R/B","OBJECT_ID":"2011-030B","EPOCH":"2026-04-10T07:29:12.271776","MEAN_MOTION":14.81333194,"ECCENTRICITY":0.00510326,"INCLINATION":97.8594,"RA_OF_ASC_NODE":56.9561,"ARG_OF_PERICENTER":246.8928,"MEAN_ANOMALY":274.7825,"EPHEMERIS_TYPE":0,"CLASSIFICATION_TYPE":"U","NORAD_CAT_ID":37731,"ELEMENT_SET_NO":999,"REV_AT_EPOCH":79477,"BSTAR":0.00015218144,"MEAN_MOTION_DOT":1.159e-5,"MEAN_MOTION_DDOT":0},{"OBJECT_NAME":"H-2A R/B","OBJECT_ID":"2012-025E","EPOCH":"2026-04-09T21:53:44.613024","MEAN_MOTION":14.95383164,"ECCENTRICITY":0.004367,"INCLINATION":98.4769,"RA_OF_ASC_NODE":69.474,"ARG_OF_PERICENTER":209.0575,"MEAN_ANOMALY":150.8212,"EPHEMERIS_TYPE":0,"CLASSIFICATION_TYPE":"U","NORAD_CAT_ID":38341,"ELEMENT_SET_NO":999,"REV_AT_EPOCH":75288,"BSTAR":0.00022477,"MEAN_MOTION_DOT":2.458e-5,"MEAN_MOTION_DDOT":0},{"OBJECT_NAME":"SHIJIAN-16 (SJ-16)","OBJECT_ID":"2013-057A","EPOCH":"2026-04-10T08:05:27.479040","MEAN_MOTION":14.92450393,"ECCENTRICITY":0.00155472,"INCLINATION":74.9706,"RA_OF_ASC_NODE":125.1742,"ARG_OF_PERICENTER":30.7461,"MEAN_ANOMALY":329.4634,"EPHEMERIS_TYPE":0,"CLASSIFICATION_TYPE":"U","NORAD_CAT_ID":39358,"ELEMENT_SET_NO":999,"REV_AT_EPOCH":67622,"BSTAR":3.0505802e-5,"MEAN_MOTION_DOT":2.84e-6,"MEAN_MOTION_DDOT":0},{"OBJECT_NAME":"SL-4 R/B","OBJECT_ID":"2014-021B","EPOCH":"2026-04-10T05:40:33.143808","MEAN_MOTION":15.40363411,"ECCENTRICITY":0.00937075,"INCLINATION":51.6057,"RA_OF_ASC_NODE":183.2469,"ARG_OF_PERICENTER":218.2147,"MEAN_ANOMALY":141.217,"EPHEMERIS_TYPE":0,"CLASSIFICATION_TYPE":"U","NORAD_CAT_ID":39679,"ELEMENT_SET_NO":999,"REV_AT_EPOCH":66113,"BSTAR":0.00033446032,"MEAN_MOTION_DOT":0.00015619,"MEAN_MOTION_DDOT":0},{"OBJECT_NAME":"ALOS-2","OBJECT_ID":"2014-029A","EPOCH":"2026-04-10T05:39:28.749024","MEAN_MOTION":14.79468238,"ECCENTRICITY":0.0001803,"INCLINATION":97.919,"RA_OF_ASC_NODE":198.3741,"ARG_OF_PERICENTER":94.8195,"MEAN_ANOMALY":265.3223,"EPHEMERIS_TYPE":0,"CLASSIFICATION_TYPE":"U","NORAD_CAT_ID":39766,"ELEMENT_SET_NO":999,"REV_AT_EPOCH":64153,"BSTAR":5.4962273e-5,"MEAN_MOTION_DOT":3.59e-6,"MEAN_MOTION_DDOT":0},{"OBJECT_NAME":"YAOGAN-29","OBJECT_ID":"2015-069A","EPOCH":"2026-04-10T07:17:10.868064","MEAN_MOTION":14.83031748,"ECCENTRICITY":6.004e-5,"INCLINATION":98.0101,"RA_OF_ASC_NODE":128.8119,"ARG_OF_PERICENTER":166.2055,"MEAN_ANOMALY":193.9174,"EPHEMERIS_TYPE":0,"CLASSIFICATION_TYPE":"U","NORAD_CAT_ID":41038,"ELEMENT_SET_NO":999,"REV_AT_EPOCH":56056,"BSTAR":7.8126156e-5,"MEAN_MOTION_DOT":5.81e-6,"MEAN_MOTION_DDOT":0},{"OBJECT_NAME":"ASTRO-H (HITOMI)","OBJECT_ID":"2016-012A","EPOCH":"2026-04-10T05:29:44.630592","MEAN_MOTION":15.10212062,"ECCENTRICITY":0.00096711,"INCLINATION":30.9983,"RA_OF_ASC_NODE":152.9833,"ARG_OF_PERICENTER":288.5177,"MEAN_ANOMALY":71.441,"EPHEMERIS_TYPE":0,"CLASSIFICATION_TYPE":"U","NORAD_CAT_ID":41337,"ELEMENT_SET_NO":999,"REV_AT_EPOCH":55700,"BSTAR":0.00015256623,"MEAN_MOTION_DOT":2.653e-5,"MEAN_MOTION_DDOT":0}]
