ALOS (DAICHI)           
1 28931U 06002A   26100.29373659  .00001284  00000+0  22284-3 0  9999
2 28931  98.1267  56.1037 0001376 115.0797 245.0552 14.69912638 78127
H-2A R/B                
1 28932U 06002B   26100.14313200  .00009886  00000+0  48410-3 0  9995
2 28932  98.2473 249.9004 0052554 134.0311 226.5268 15.17174677 99208
RESURS-DK 1             
1 29228U 06021A   26100.20670543  .00001891  00000+0  11317-3 0  9992
2 29228  69.9320 155.4899 0002282  20.3541 339.7716 15.12937425 92291
CZ-4B R/B               
1 29507U 06046C   26100.07152332  .00004781  00000+0  24031-3 0  9993
2 29507  97.5536 144.8922 0033802 156.4370 203.8421 15.17243656 64800
CZ-2C R/B               
1 31114U 07010B   26100.28760475  .00000145  00000+0  85673-4 0  9998
2 31114  98.4014 211.9878 0058648 201.2561 158.6180 14.20258747984204
COSMO-SKYMED 1          
1 31598U 07023A   26100.28780647  .00003408  00000+0  30298-3 0  9998
2 31598  97.8890 291.5790 0001737  90.9477 269.1943 14.96785149 19633
COSMOS 2428             
1 31792U 07029A   26100.18006692 -.00000100  00000+0 -28067-4 0  9990
2 31792  70.9411 137.2501 0009646 244.0335 115.9793 14.12948792968545
SL-16 R/B               
1 31793U 07029B   26100.29841729 -.00000205  00000+0 -81272-4 0  9994
2 31793  70.9730 105.9407 0002890 274.2455  97.3327 14.14842694969845
KORONAS-FOTON           
1 33504U 09003A   26100.13684890  .00013298  00000+0  28788-3 0  9993
2 33504  82.4294 243.1589 0011122  46.7665 313.4510 15.44245081950598
CZ-2C R/B               
1 37731U 11030B   26100.31194759  .00001159  00000+0  15218-3 0  9999
2 37731  97.8594  56.9561 0051032 246.8928 274.7825 14.81333194794773
H-2A R/B                
1 38341U 12025E   26099.91232191  .00002458  00000+0  22477-3 0  9996
2 38341  98.4769  69.4740 0043670 209.0575 150.8212 14.95383164752885
SHIJIAN-16 (SJ-16)      
1 39358U 13057A   26100.33712360  .00000284  00000+0  30506-4 0  9999
2 39358  74.9706 125.1742 0015547  30.7461 329.4634 14.92450393676222
SL-4 R/B                
1 39679U 14021B   26100.23649472  .00015619  00000+0  33446-3 0  9992
2 39679  51.6057 183.2469 0093707 218.2147 141.2170 15.40363411661135
ALOS-2                  
1 39766U 14029A   26100.23574941  .00000359  00000+0  54962-4 0  9997
2 39766  97.9190 198.3741 0001803  94.8195 265.3223 14.79468238641533
YAOGAN-29               
1 41038U 15069A   26100.30359801  .00000581  00000+0  78126-4 0  9996
2 41038  98.0101 128.8119 0000600 166.2055 193.9174 14.83031748560563
ASTRO-H (HITOMI)        
1 41337U 16012A   26100.22898878  .00002653  00000+0  15257-3 0  9997
2 41337  30.9983 152.9833 0009671 288.5177  71.4410 15.10212062557008
